0 SL-3 R/B
1  7364U 74052B   19298.78957189 -.00000008 +00000-0 -11862-4 0  9993
2  7364 081.2350 034.6274 0049052 246.2847 113.3171 14.06014704322067
0 OPS 7518 (NTS 1)
1  7369U 74054A   19298.41820604 +.00000079 +00000-0 +00000-0 0  9995
2  7369 125.1577 345.2133 0073652 290.9138 088.7618 03.07214743508069
0 SL-6 R/B(2)
1  7373U 74026E   19298.86982479 -.00000899 +00000-0 +51613-3 0  9997
2  7373 063.4848 246.5403 7088327 282.9183 012.2568 02.06594060336814
0 SL-6 R/B(2)
1  7373U 74026E   19298.86982509 -.00000897  00000-0  98431-3 0  9998
2  7373  63.4849 246.5402 7088326 282.9183  12.2569  2.06594062336793
0 MOLNIYA 1-S
1  7392U 74060A   19298.90563815 -.00000367 +00000-0 +00000-0 0  9991
2  7392 007.4240 296.6741 0007660 187.5852 343.3106 01.00261392109846
0 MOLNIYA 1-S
1  7392U 74060A   19299.88488457 -.00000366  00000-0  00000+0 0  9995
2  7392   7.4218 296.6616 0007635 187.6295 336.7343  1.00260881109847
0 SL-12 R/B(AUX MOTOR)
1  7400U 74060E   19299.42341877 -.00000036  00000-0  00000+0 0  9993
2  7400  45.5975  23.1124 6553358 117.5948 322.1044  2.54701989172888
0 SL-12 R/B(AUX MOTOR)
1  7400U 74060E   19298.63839824 -.00000027 +00000-0 +00000-0 0  9990
2  7400 045.5965 023.3146 6553384 117.3866 322.2998 02.54702045049335
0 OPS 6983 (DMSP 5C F1)
1  7411U 74063A   19298.57867934 +.00000054 +00000-0 +39656-4 0  9993
2  7411 098.7087 133.8892 0040755 276.3435 083.3105 14.27885876347920
0 OPS 6983 (DMSP 5C F1)
1  7411U 74063A   19299.13926620  .00000050  00000-0  38185-4 0  9996
2  7411  98.7086 134.4482 0040746 274.6706  84.9822 14.27885958348265
0 THOR BURNER 2A R/B
1  7412U 74063B   19298.63277167 +.00000007 +00000-0 +22374-4 0  9991
2  7412 098.7801 134.1283 0045810 160.5112 199.7830 14.22908305343927
0 THOR BURNER 2A R/B
1  7412U 74063B   19299.47659469  .00000007  00000-0  22642-4 0  9991
2  7412  98.7800 134.9697 0045857 158.0977 202.2174 14.22908394344284
0 SL-8 R/B
1  7426U 74069B   19298.91107705 -.00000056 +00000-0 -20375-3 0  9997
2  7426 074.0560 243.1825 0043677 038.7430 034.1648 12.68821775476415
0 COSMOS 676
1  7433U 74071A   19298.88630012 +.00000003 +00000-0 +10771-4 0  9996
2  7433 074.0491 211.4902 0014852 292.6035 067.3544 14.32565405355344
0 COSMOS 676
1  7433U 74071A   19299.86395976  .00000009  00000-0  12870-4 0  9990
2  7433  74.0491 209.7070 0014864 290.7258  69.2300 14.32565490355726
0 SL-8 R/B
1  7434U 74071B   19299.79278190  .00000069  00000-0  32117-4 0  9993
2  7434  74.0473  71.6176 0019806 131.1206 229.1661 14.36720685360447
0 SL-8 R/B
1  7434U 74071B   19298.81794689 +.00000076 +00000-0 +34543-4 0  9994
2  7434 074.0471 073.4081 0019840 133.2372 227.0441 14.36720500360039
0 COSMOS 677
1  7435U 74072A   19298.62835196 +.00000002 +00000-0 +10448-3 0  9990
2  7435 074.0367 345.9097 0044106 152.5888 005.9886 12.57984215071027
0 COSMOS 678
1  7436U 74072B   19298.91874167 -.00000009 +00000-0 +43946-4 0  9992
2  7436 074.0329 287.0992 0041735 000.7756 021.9644 12.41763079044418
0 COSMOS 678
1  7436U 74072B   19299.17273225 -.00000014  00000-0  12947-4 0  9992
2  7436  74.0330 286.7668 0041740   0.4009  77.3892 12.41763065 44639
0 COSMOS 680
1  7438U 74072D   19298.92348484 -.00000018 +00000-0 -16810-4 0  9994
2  7438 074.0335 091.1696 0015374 136.9817 021.9236 12.46605306052321
0 COSMOS 680
1  7438U 74072D   19299.54412716 -.00000026  00000-0 -70329-4 0  9997
2  7438  74.0336  90.3502 0015368 136.0301 287.2539 12.46605310 52633
0 COSMOS 681
1  7439U 74072E   19299.16811330 -.00000001  00000-0  97264-4 0  9990
2  7439  74.0375 352.5069 0003445  69.5628 350.0220 12.49031770 56583
0 COSMOS 681
1  7439U 74072E   19298.62872336 -.00000012 +00000-0 +27760-4 0  9999
2  7439 074.0364 353.2219 0003454 070.5501 084.4700 12.49031730056338
0 COSMOS 682
1  7440U 74072F   19298.95028644 -.00000020 +00000-0 -25026-4 0  9995
2  7440 074.0335 261.8825 0008157 108.1364 307.4009 12.51257546059998
0 COSMOS 683
1  7441U 74072G   19298.82568165 -.00000004 +00000-0 +75799-4 0  9992
2  7441 074.0346 171.4448 0020556 003.4840 356.6352 12.53475757063610
0 COSMOS 683
1  7441U 74072G   19299.78333954  .00000005  00000-0  12967-3 0  9991
2  7441  74.0344 170.1644 0020570   2.0549 358.0584 12.53475801 63960
0 COSMOS 684
1  7442U 74072H   19299.48816427 -.00000031  00000-0 -87987-4 0  9996
2  7442  74.0348  80.0023 0033117 268.4130 160.3627 12.55678093 67540
0 COSMOS 684
1  7442U 74072H   19298.86103703 -.00000023 +00000-0 -41498-4 0  9991
2  7442 074.0347 080.8443 0033120 269.3454 205.4914 12.55678101067175
0 SL-8 R/B
1  7443U 74072J   19298.94279205 -.00000096 +00000-0 -74459-3 0  9994
2  7443 074.0325 311.9207 0131073 130.6145 278.3719 12.22812425013447
0 SL-8 R/B
1  7443U 74072J   19299.53041689 -.00000094  00000-0 -72442-3 0  9991
2  7443  74.0325 311.1786 0131061 129.7687 345.1758 12.22812331 13710
0 COSMOS 689
1  7476U 74079A   19299.25577104  .00000043  00000-0  30558-4 0  9994
2  7476  82.9427 165.5478 0030808  20.8346 117.3938 13.72151394253936
0 COSMOS 689
1  7476U 74079A   19298.79958671 +.00000040 +00000-0 +27393-4 0  9994
2  7476 082.9428 165.8841 0030833 022.0790 023.9818 13.72151362253607
0 SL-8 R/B
1  7477U 74079B   19298.90629372 +.00000164 +00000-0 +15821-3 0  9990
2  7477 082.9399 126.7318 0032769 224.2401 247.0402 13.74085339256529
0 DELTA 1 DEB
1  7488U 73086FU  19298.90366138 +.00007113 +00000-0 +12239-1 0  9996
2  7488 101.8698 271.9521 0461023 310.4964 045.6815 13.09809632347668
0 DELTA 1 DEB
1  7488U 73086FU  19299.13280099  .00005961  00000-0  10279-1 0  9994
2  7488 101.8700 272.2068 0460770 310.0362  46.1162 13.09810447999646
0 NOAA 4
1  7529U 74089A   19299.59469295 -.00000032  00000-0  79924-4 0  9991
2  7529 101.7716 265.9883 0008870 153.5538 336.3161 12.53135234 55936
0 NOAA 4
1  7529U 74089A   19298.85923110 -.00000027 +00000-0 +11337-3 0  9997
2  7529 101.7714 265.2594 0008860 154.9769 258.4293 12.53135224055597
0 OSCAR 7
1  7530U 74089B   19298.90538333 -.00000034 +00000-0 +67627-4 0  9996
2  7530 101.7627 265.3190 0012466 097.0087 327.4218 12.53640497056477
0 OSCAR 7
1  7530U 74089B   19299.55423146 -.00000036  00000-0  57129-4 0  9991
2  7530 101.7629 265.9622 0012470  95.7756  15.7247 12.53640534 56794
0 INTASAT
1  7531U 74089C   19298.91039604 -.00000040 +00000-0 +31433-4 0  9998
2  7531 101.7613 265.3308 0011500 106.4067 316.7645 12.53487117056276
0 THORAD DELTA 1 R/B
1  7532U 74089D   19298.76413027 -.00000037 +00000-0 +38131-4 0  9995
2  7532 101.6462 339.5082 0067045 106.8197 013.0010 12.39862445034302
0 THORAD DELTA 1 R/B
1  7532U 74089D   19299.73054582 -.00000032  00000-0  77993-4 0  9994
2  7532 101.6460 340.4325 0067042 105.0030   6.5929 12.39862451 34689
0 INTELSAT 4-F8
1  7544U 74093A   19298.84525019 -.00000281 +00000-0 +00000-0 0  9998
2  7544 012.8353 326.6348 0001895 081.5227 083.0328 00.99795034100993
0 ATLAS CENTAUR R/B
1  7545U 74093B   19298.84057742 -.00000070 +00000-0 +13814-3 0  9998
2  7545 025.8223 145.2344 7177259 035.0625 355.9905 02.21150352233192
0 ATLAS CENTAUR R/B
1  7545U 74093B   19299.74487482 -.00000040  00000-0  51845-3 0  9999
2  7545  25.8220 144.9356 7177286  35.5689 355.9317  2.21150421233197
0 SKYNET 2B
1  7547U 74094A   19298.84228416 -.00000328 +00000-0 +00000-0 0  9995
2  7547 009.4023 307.6392 0001119 053.9298 113.6473 01.00245990100434
0 SL-8 DEB
1  7560U 72062D   19298.81124628 +.00000058 +00000-0 +25001-4 0  9991
2  7560 082.9754 248.7450 0065896 250.4966 108.9082 14.05961334298497
0 SL-8 DEB
1  7560U 72062D   19299.87875514  .00000043  00000-0  16518-4 0  9992
2  7560  82.9759 247.9160 0065960 247.3004 112.1188 14.05961353411909
0 SL-3 R/B
1  7575U 74099B   19298.81492877 +.00000173 +00000-0 +88306-4 0  9998
2  7575 081.2477 194.5977 0049989 352.1400 007.8981 14.11060405307758
0 SL-3 R/B
1  7575U 74099B   19299.24037586  .00000179  00000-0  91433-4 0  9999
2  7575  81.2477 194.1831 0049961 350.9326   9.0937 14.11060609308129
0 SYMPHONIE 1
1  7578U 74101A   19299.78452831 -.00000011  00000-0  00000+0 0  9990
2  7578  10.4581 307.5988 0003378 310.8264 242.9277  0.99962576 93382
0 SYMPHONIE 1
1  7578U 74101A   19298.77982323 -.00000003 +00000-0 +00000-0 0  9994
2  7578 010.4602 307.6111 0003332 310.1289 242.0493 00.99962239092943
0 COSMOS 700
1  7593U 74105A   19298.88923453 +.00000018 +00000-0 +26060-5 0  9990
2  7593 082.9540 048.6856 0023379 251.3711 248.5298 13.76731529251588
0 COSMOS 700
1  7593U 74105A   19299.45669531  .00000017  00000-0  24335-5 0  9990
2  7593  82.9541  48.2646 0023394 249.6873 181.0936 13.76731537251903
0 SL-8 R/B
1  7594U 74105B   19299.78970694  .00000059  00000-0  42374-4 0  9990
2  7594  82.9509   6.0193 0017728  97.3101  41.9236 13.78890593254903
0 LANDSAT 2
1  7615U 75004A   19299.11446390 -.00000179  00000-0 -99369-4 0  9992
2  7615  98.7516 302.9092 0008968 157.2983 202.8579 13.96675646280723
0 LANDSAT 2
1  7615U 75004A   19298.89954975 -.00000168 +00000-0 -91010-4 0  9992
2  7615 098.7516 302.7048 0008964 157.8820 202.2732 13.96675723280411
0 DELTA 1 R/B
1  7616U 75004B   19298.92845922 -.00000033 +00000-0 +15108-5 0  9993
2  7616 097.7092 307.3265 0186192 321.8043 037.0054 14.05046909279599
0 COSMOS 706
1  7625U 75007A   19299.48781118 -.00000469  00000-0  00000+0 0  9996
2  7625  67.4328   2.8239 5967799  21.0417 355.7773  2.00610531187992
0 STARLETTE
1  7646U 75010A   19299.19091340 -.00000124  00000-0  14255-4 0  9992
2  7646  49.8249 320.0402 0205741 328.9860  29.9018 13.82306662258941
0 STARLETTE
1  7646U 75010A   19298.90172722 -.00000123 +00000-0 +15177-4 0  9997
2  7646 049.8250 321.1816 0205747 328.0312 030.8234 13.82306649258927
